{
  "type": "FeatureCollection",
  "features": [
    {
      "type": "Feature",
      "properties": {
        "norad_id": 66490,
        "name": "STARLINK-35693",
        "group": "last-30-days",
        "lat": 4.0642764555546504,
        "lon": -24.80028919444688,
        "alt_km": 396.3646505860979,
        "timestamp": "2025-12-06T20:37:54.812766+00:00",
        "meta_object_name": "STARLINK-35693",
        "meta_object_id": "2025-263F",
        "meta_epoch": "2025-12-06T14:00:01.999872",
        "meta_mean_motion": 15.58008859,
        "meta_eccentricity": 0.0001564,
        "meta_inclination": 42.9996,
        "meta_ra_of_asc_node": 161.206,
        "meta_arg_of_pericenter": 267.9953,
        "meta_mean_anomaly": 154.9898,
        "meta_ephemeris_type": 0,
        "meta_classification_type": "U",
        "meta_norad_cat_id": 66490,
        "meta_element_set_no": 999,
        "meta_rev_at_epoch": 464,
        "meta_bstar": -0.030740492,
        "meta_mean_motion_dot": -0.02107201,
        "meta_mean_motion_ddot": 0,
        "tle_line1": "1 66490U 25263F   25340.58335648 -.02107201  00000+0 -30740-1 0  9998",
        "tle_line2": "2 66490  42.9996 161.2060 0001564 267.9953 154.9898 15.58008859  4646"
      },
      "geometry": {
        "type": "Point",
        "coordinates": [
          -24.80028919444688,
          4.0642764555546504
        ]
      }
    },
    {
      "type": "Feature",
      "properties": {
        "norad_id": 66491,
        "name": "STARLINK-35663",
        "group": "last-30-days",
        "lat": 1.4535170939431166,
        "lon": -21.997163784029613,
        "alt_km": 396.71143864973874,
        "timestamp": "2025-12-06T20:37:54.812778+00:00",
        "meta_object_name": "STARLINK-35663",
        "meta_object_id": "2025-263G",
        "meta_epoch": "2025-12-06T14:00:01.999872",
        "meta_mean_motion": 15.58013241,
        "meta_eccentricity": 0.00015875,
        "meta_inclination": 43,
        "meta_ra_of_asc_node": 161.1963,
        "meta_arg_of_pericenter": 271.1983,
        "meta_mean_anomaly": 155.619,
        "meta_ephemeris_type": 0,
        "meta_classification_type": "U",
        "meta_norad_cat_id": 66491,
        "meta_element_set_no": 999,
        "meta_rev_at_epoch": 464,
        "meta_bstar": -0.030828547,
        "meta_mean_motion_dot": -0.02112901,
        "meta_mean_motion_ddot": 0,
        "tle_line1": "1 66491U 25263G   25340.58335648 -.02112901  00000+0 -30829-1 0  9990",
        "tle_line2": "2 66491  43.0000 161.1963 0001587 271.1983 155.6190 15.58013241  4645"
      },
      "geometry": {
        "type": "Point",
        "coordinates": [
          -21.997163784029613,
          1.4535170939431166
        ]
      }
    },
    {
      "type": "Feature",
      "properties": {
        "norad_id": 66492,
        "name": "STARLINK-35673",
        "group": "last-30-days",
        "lat": 0.146778541148258,
        "lon": -20.599222749352993,
        "alt_km": 396.86386038893033,
        "timestamp": "2025-12-06T20:37:54.812789+00:00",
        "meta_object_name": "STARLINK-35673",
        "meta_object_id": "2025-263H",
        "meta_epoch": "2025-12-06T14:00:01.999872",
        "meta_mean_motion": 15.58008467,
        "meta_eccentricity": 0.00015706,
        "meta_inclination": 42.9998,
        "meta_ra_of_asc_node": 161.1914,
        "meta_arg_of_pericenter": 272.0472,
        "meta_mean_anomaly": 156.6893,
        "meta_ephemeris_type": 0,
        "meta_classification_type": "U",
        "meta_norad_cat_id": 66492,
        "meta_element_set_no": 999,
        "meta_rev_at_epoch": 464,
        "meta_bstar": -0.030730278,
        "meta_mean_motion_dot": -0.02106554,
        "meta_mean_motion_ddot": 0,
        "tle_line1": "1 66492U 25263H   25340.58335648 -.02106554  00000+0 -30730-1 0  9999",
        "tle_line2": "2 66492  42.9998 161.1914 0001570 272.0472 156.6893 15.58008467  4646"
      },
      "geometry": {
        "type": "Point",
        "coordinates": [
          -20.599222749352993,
          0.146778541148258
        ]
      }
    },
    {
      "type": "Feature",
      "properties": {
        "norad_id": 66493,
        "name": "STARLINK-35597",
        "group": "last-30-days",
        "lat": -1.1613957850328183,
        "lon": -19.20049434070776,
        "alt_km": 396.9677091178519,
        "timestamp": "2025-12-06T20:37:54.812804+00:00",
        "meta_object_name": "STARLINK-35597",
        "meta_object_id": "2025-263J",
        "meta_epoch": "2025-12-06T14:00:01.999872",
        "meta_mean_motion": 15.58011492,
        "meta_eccentricity": 0.00015113,
        "meta_inclination": 42.9999,
        "meta_ra_of_asc_node": 161.186,
        "meta_arg_of_pericenter": 271.094,
        "meta_mean_anomaly": 159.5589,
        "meta_ephemeris_type": 0,
        "meta_classification_type": "U",
        "meta_norad_cat_id": 66493,
        "meta_element_set_no": 999,
        "meta_rev_at_epoch": 464,
        "meta_bstar": -0.03078488,
        "meta_mean_motion_dot": -0.02110059,
        "meta_mean_motion_ddot": 0,
        "tle_line1": "1 66493U 25263J   25340.58335648 -.02110059  00000+0 -30785-1 0  9995",
        "tle_line2": "2 66493  42.9999 161.1860 0001511 271.0940 159.5589 15.58011492  4648"
      },
      "geometry": {
        "type": "Point",
        "coordinates": [
          -19.20049434070776,
          -1.1613957850328183
        ]
      }
    },
    {
      "type": "Feature",
      "properties": {
        "norad_id": 66494,
        "name": "STARLINK-35689",
        "group": "last-30-days",
        "lat": 2.7582984187571866,
        "lon": -23.39560845916073,
        "alt_km": 396.54170768667336,
        "timestamp": "2025-12-06T20:37:54.812817+00:00",
        "meta_object_name": "STARLINK-35689",
        "meta_object_id": "2025-263K",
        "meta_epoch": "2025-12-06T14:00:01.999872",
        "meta_mean_motion": 15.580111,
        "meta_eccentricity": 0.00015548,
        "meta_inclination": 42.9996,
        "meta_ra_of_asc_node": 161.2012,
        "meta_arg_of_pericenter": 269.6342,
        "meta_mean_anomaly": 155.2692,
        "meta_ephemeris_type": 0,
        "meta_classification_type": "U",
        "meta_norad_cat_id": 66494,
        "meta_element_set_no": 999,
        "meta_rev_at_epoch": 464,
        "meta_bstar": -0.030808273,
        "meta_mean_motion_dot": -0.02111489,
        "meta_mean_motion_ddot": 0,
        "tle_line1": "1 66494U 25263K   25340.58335648 -.02111489  00000+0 -30808-1 0  9990",
        "tle_line2": "2 66494  42.9996 161.2012 0001554 269.6342 155.2692 15.58011100  4646"
      },
      "geometry": {
        "type": "Point",
        "coordinates": [
          -23.39560845916073,
          2.7582984187571866
        ]
      }
    },
    {
      "type": "Feature",
      "properties": {
        "norad_id": 66495,
        "name": "STARLINK-35832",
        "group": "last-30-days",
        "lat": -2.467253887686954,
        "lon": -17.801170123181475,
        "alt_km": 397.11593030094355,
        "timestamp": "2025-12-06T20:37:54.812828+00:00",
        "meta_object_name": "STARLINK-35832",
        "meta_object_id": "2025-263L",
        "meta_epoch": "2025-12-06T14:00:01.999872",
        "meta_mean_motion": 15.58009893,
        "meta_eccentricity": 0.00015302,
        "meta_inclination": 42.9994,
        "meta_ra_of_asc_node": 161.1816,
        "meta_arg_of_pericenter": 271.9398,
        "meta_mean_anomaly": 160.6312,
        "meta_ephemeris_type": 0,
        "meta_classification_type": "U",
        "meta_norad_cat_id": 66495,
        "meta_element_set_no": 999,
        "meta_rev_at_epoch": 464,
        "meta_bstar": -0.03077329,
        "meta_mean_motion_dot": -0.02109252,
        "meta_mean_motion_ddot": 0,
        "tle_line1": "1 66495U 25263L   25340.58335648 -.02109252  00000+0 -30773-1 0  9997",
        "tle_line2": "2 66495  42.9994 161.1816 0001530 271.9398 160.6312 15.58009893  4642"
      },
      "geometry": {
        "type": "Point",
        "coordinates": [
          -17.801170123181475,
          -2.467253887686954
        ]
      }
    },
    {
      "type": "Feature",
      "properties": {
        "norad_id": 66496,
        "name": "STARLINK-35909",
        "group": "last-30-days",
        "lat": -3.773684192327118,
        "lon": -16.397704515852368,
        "alt_km": 397.2472451722033,
        "timestamp": "2025-12-06T20:37:54.812838+00:00",
        "meta_object_name": "STARLINK-35909",
        "meta_object_id": "2025-263M",
        "meta_epoch": "2025-12-06T14:00:01.999872",
        "meta_mean_motion": 15.5801161,
        "meta_eccentricity": 0.0001449,
        "meta_inclination": 42.9996,
        "meta_ra_of_asc_node": 161.1764,
        "meta_arg_of_pericenter": 272.2546,
        "meta_mean_anomaly": 162.2344,
        "meta_ephemeris_type": 0,
        "meta_classification_type": "U",
        "meta_norad_cat_id": 66496,
        "meta_element_set_no": 999,
        "meta_rev_at_epoch": 464,
        "meta_bstar": -0.030818003,
        "meta_mean_motion_dot": -0.02112045,
        "meta_mean_motion_ddot": 0,
        "tle_line1": "1 66496U 25263M   25340.58335648 -.02112045  00000+0 -30818-1 0  9992",
        "tle_line2": "2 66496  42.9996 161.1764 0001449 272.2546 162.2344 15.58011610  4648"
      },
      "geometry": {
        "type": "Point",
        "coordinates": [
          -16.397704515852368,
          -3.773684192327118
        ]
      }
    }
  ]
}